OBJECT_NAME,OBJECT_ID,EPOCH,MEAN_MOTION,ECCENTRICITY,INCLINATION,RA_OF_ASC_NODE,ARG_OF_PERICENTER,MEAN_ANOMALY,EPHEMERIS_TYPE,CLASSIFICATION_TYPE,NORAD_CAT_ID,ELEMENT_SET_NO,REV_AT_EPOCH,BSTAR,MEAN_MOTION_DOT,MEAN_MOTION_DDOT
STARLINK-1998,2021-009AX,2023-11-28T00:37:20.001216,15.06406827,.0001472,53.0525,179.5936,99.4430,260.6726,0,U,47593,999,15562,.3569E-3,.5039E-4,0
STARLINK-1999,2021-009AY,2023-11-27T19:02:56.256288,15.06449790,.0000836,53.0546,180.6256,99.9058,260.2026,0,U,47594,999,15497,.15725E-2,.2325E-3,0
STARLINK-2000,2021-009AZ,2023-11-27T23:28:20.618688,15.06403901,.0001641,53.0530,179.8080,91.3871,268.7306,0,U,47595,999,15560,.18681E-3,.2502E-4,0
STARLINK-2001,2021-009BA,2023-11-27T20:22:36.028704,15.06375050,.000149,53.0533,180.3828,88.7531,271.3629,0,U,47596,999,15498,.12461E-2,.18315E-3,0
STARLINK-2002,2021-009BB,2023-11-27T21:47:30.880320,15.06387749,.0001975,53.0543,180.1197,63.4364,296.6828,0,U,47597,999,15560,-.23691E-3,-.3808E-4,0
STARLINK-2003,2021-009BC,2023-11-28T12:21:56.403360,15.06394403,.0001577,53.0541,147.3962,75.1822,284.9342,0,U,47598,999,15612,.52836E-4,.505E-5,0
STARLINK-2004,2021-009BD,2023-11-27T17:00:51.386976,15.06408394,.0001678,53.0539,141.0137,110.5534,249.5636,0,U,47599,999,15552,.25992E-3,.3593E-4,0
STARLINK-2005,2021-009BE,2023-11-27T19:13:33.227328,15.06394108,.0001124,53.0522,140.5723,85.4544,274.6573,0,U,47600,999,15554,.1477E-3,.1919E-4,0
STARLINK-2006,2021-009BF,2023-11-27T18:41:42.326304,15.06410856,.0002128,53.0533,140.6941,110.4651,249.6566,0,U,47601,999,15614,.75223E-4,.839E-5,0
STARLINK-2007,2021-009BG,2023-11-28T12:43:10.224480,15.06396774,.0001558,53.0534,147.3306,105.3837,254.7325,0,U,47602,999,15610,.354E-4,.246E-5,0
STARLINK-2008,2021-009BH,2023-11-27T21:05:01.456512,15.06417710,.0001646,53.0527,180.2547,87.4791,272.6387,0,U,47603,999,15498,.59876E-3,.8652E-4,0
STARLINK-2021,2021-009BJ,2023-11-27T17:47:18.313152,15.06398262,.0001869,53.0535,150.8643,119.9953,240.1221,0,U,47604,999,15539,-.13965E-3,-.2361E-4,0
STARLINK-2024,2021-009BL,2023-11-28T11:23:34.566432,15.06386085,.0001859,53.0551,147.5767,120.9149,239.2023,0,U,47606,999,15610,-.2468E-4,-.649E-5,0
STARLINK-2025,2021-009BM,2023-11-27T18:05:09.397536,15.06385081,.0001443,53.0536,145.6132,89.4625,270.6530,0,U,47607,999,15546,.25393E-3,.3501E-4,0
FLOCK 4S-42,2021-006EQ,2023-11-27T17:42:57.280608,15.36265317,.0005884,97.3683,30.3125,214.4676,145.6187,0,U,47612,999,15777,.75323E-3,.2662E-3,0
TJS-6,2021-010A,2023-11-27T17:30:55.567584,1.00268936,.000126,0.1492,283.4922,334.3025,249.8036,0,U,47613,999,1046,0,.52E-6,0
ARCE-1B,2021-006EG,2023-11-27T09:55:19.116480,15.57469426,.0002449,97.3568,33.5003,203.4014,156.7130,0,U,47615,999,15708,.18267E-2,.136115E-2,0
ARCE-1A,2021-006EH,2023-11-27T15:55:13.017504,15.63355288,.0003132,97.3248,34.3071,210.3593,149.7485,0,U,47616,999,15809,.22629E-2,.212994E-2,0
FLOCK 4S-48,2021-006EJ,2023-11-28T03:29:54.284352,15.36316371,.000728,97.3676,30.8328,191.7727,168.3348,0,U,47617,999,15882,.83583E-3,.29617E-3,0
STARLINK-1528,2021-012A,2023-11-27T22:31:18.292224,15.06395941,.0001593,53.0531,209.9839,105.9681,254.1484,0,U,47620,999,15395,.76905E-3,.11191E-3,0
STARLINK-1609,2021-012B,2023-11-27T22:20:41.156160,15.06422628,.0001598,53.0547,210.0184,82.2682,277.8489,0,U,47621,999,15395,.12049E-2,.17722E-3,0
STARLINK-1645,2021-012C,2023-11-28T01:25:05.883168,15.06398597,.0001407,53.0537,209.4326,98.8581,261.2567,0,U,47622,999,15397,.52834E-3,.7597E-4,0
STARLINK-1655,2021-012D,2023-11-28T11:16:15.619008,15.06393795,.0001138,53.0541,142.5990,94.8340,265.2778,0,U,47623,999,15495,.56454E-4,.56E-5,0
STARLINK-1669,2021-012E,2023-11-27T23:58:52.324608,15.06396951,.0001329,53.0522,189.7120,82.7997,277.3142,0,U,47624,999,15424,.15078E-3,.1965E-4,0
STARLINK-1704,2021-012F,2023-11-28T01:35:42.656352,15.06403396,.0001311,53.0539,209.4013,105.6189,254.4945,0,U,47625,999,15397,.81295E-3,.11849E-3,0
STARLINK-1761,2021-012G,2023-11-28T01:15:50.471136,15.06420118,.0001308,53.0533,209.4740,91.1726,268.9413,0,U,47626,999,15397,.1221E-2,.17962E-3,0
STARLINK-1972,2021-012H,2023-11-27T17:33:22.190976,15.06397998,.0001446,53.0546,115.9125,109.1938,250.9207,0,U,47627,999,15574,-.48555E-4,-.1005E-4,0
STARLINK-1973,2021-012J,2023-11-27T21:20:56.395104,15.06404552,.0001083,53.0527,210.1982,101.6432,258.4679,0,U,47628,999,15394,.94235E-3,.13784E-3,0
STARLINK-1974,2021-012K,2023-11-28T11:15:34.581600,15.06408237,.0001181,53.0551,87.5959,102.7359,257.3763,0,U,47629,999,15571,.19361E-3,.2604E-4,0
STARLINK-1983,2021-012L,2023-11-28T00:41:20.855040,15.06399025,.0001456,53.0536,189.6670,92.7001,267.4154,0,U,47630,999,15424,.34751E-3,.4898E-4,0
STARLINK-1992,2021-012N,2023-11-27T16:33:38.315520,15.06405280,.0002009,53.0544,116.0987,110.8846,249.2358,0,U,47632,999,15574,-.13651E-3,-.2315E-4,0
STARLINK-2009,2021-012P,2023-11-27T21:47:29.780448,15.06380996,.0001372,53.0533,210.1552,102.7316,257.3826,0,U,47633,999,15448,.53004E-3,.7618E-4,0
STARLINK-2010,2021-012Q,2023-11-27T22:47:14.330688,15.06397555,.0001295,53.0528,209.9356,85.7314,274.3823,0,U,47634,999,15395,.75991E-3,.11055E-3,0
STARLINK-2012,2021-012R,2023-11-27T15:25:59.090592,15.06389774,.0001177,53.0539,116.3078,89.2369,270.8755,0,U,47635,999,15575,-.14063E-3,-.2375E-4,0
STARLINK-2013,2021-012S,2023-11-27T22:28:38.647488,15.06397361,.0001479,53.0513,190.0020,78.8974,281.2181,0,U,47636,999,15474,.2982E-3,.4163E-4,0
STARLINK-2014,2021-012T,2023-11-27T21:46:10.402176,15.06397069,.000149,53.0541,190.1258,101.1756,258.9400,0,U,47637,999,15423,.16301E-3,.2147E-4,0
STARLINK-2015,2021-012U,2023-11-27T16:56:12.943968,15.06393749,.0001383,53.0545,116.0287,100.6617,259.4528,0,U,47638,999,15574,-.29984E-3,-.4744E-4,0
STARLINK-2016,2021-012V,2023-11-28T00:25:24.395808,15.06405515,.0001566,53.0521,189.6300,93.1533,266.9636,0,U,47639,999,15424,.3317E-3,.4663E-4,0
STARLINK-2018,2021-012W,2023-11-27T22:41:55.038624,15.06411044,.0001617,53.0532,209.9531,71.8588,288.2576,0,U,47640,999,15395,.11221E-2,.16477E-3,0
STARLINK-2019,2021-012X,2023-11-27T16:34:59.143584,15.06398601,.0001647,53.0568,116.0963,81.2218,278.8958,0,U,47641,999,15574,.18658E-3,.2499E-4,0
STARLINK-2020,2021-012Y,2023-11-27T22:50:33.096480,15.06388414,.0001294,53.0527,204.9242,76.0540,284.0593,0,U,47642,999,15402,.49826E-3,.7146E-4,0
STARLINK-2022,2021-012Z,2023-11-28T00:46:38.376768,15.06408923,.0001366,53.0531,189.5644,90.2879,269.8266,0,U,47643,999,15424,.40439E-3,.5748E-4,0
STARLINK-2026,2021-012AA,2023-11-28T02:40:45.247584,15.06409547,.0001298,53.0519,209.2080,109.9984,250.1145,0,U,47644,999,15398,.43615E-3,.6223E-4,0
STARLINK-2027,2021-012AB,2023-11-27T20:49:09.327648,15.06403485,.0001997,53.0532,180.5464,83.4766,276.6450,0,U,47645,999,15485,.21594E-3,.2936E-4,0
STARLINK-2028,2021-012AC,2023-11-27T18:54:23.105952,15.06390171,.0001477,53.0528,145.8975,100.2701,259.8454,0,U,47646,999,15533,.76005E-4,.85E-5,0
STARLINK-2030,2021-012AD,2023-11-28T01:21:08.086176,15.06402957,.0001836,53.0549,209.4529,64.7869,295.3310,0,U,47647,999,15397,-.21233E-5,-.313E-5,0
STARLINK-2031,2021-012AE,2023-11-27T20:21:14.629536,15.06403685,.0001579,53.0525,190.3924,89.9450,270.1720,0,U,47648,999,15474,.39134E-3,.5553E-4,0
STARLINK-2032,2021-012AF,2023-11-27T22:02:05.268192,15.06403712,.0001561,53.0530,190.0754,106.9248,253.1912,0,U,47649,999,15423,.78097E-4,.882E-5,0
STARLINK-2033,2021-012AG,2023-11-27T21:40:52.225536,15.06410124,.0001478,53.0537,190.1433,99.4506,260.6650,0,U,47650,999,15473,.14772E-3,.192E-4,0
STARLINK-2035,2021-012AH,2023-11-27T21:01:04.634112,15.06409438,.0001504,53.0537,210.3138,94.9270,265.1890,0,U,47651,999,15446,.11188E-2,.16426E-3,0
STARLINK-2036,2021-012AJ,2023-11-27T21:32:55.821984,15.06394278,.0001914,53.0536,210.1662,121.6957,238.4218,0,U,47652,999,15394,.87883E-3,.12831E-3,0
STARLINK-2037,2021-012AK,2023-11-27T21:24:56.913696,15.06400291,.0001493,53.0529,190.1918,106.3544,253.7609,0,U,47653,999,15422,.27358E-3,.3796E-4,0
STARLINK-2038,2021-012AL,2023-11-27T21:38:14.201664,15.06386243,.0001568,53.0537,210.1543,104.3161,255.8002,0,U,47654,999,15446,.40593E-3,.5768E-4,0
STARLINK-2039,2021-012AM,2023-11-27T21:27:37.158048,15.06385168,.0001302,53.0530,210.1878,99.8164,260.2971,0,U,47655,999,15446,.43196E-3,.6156E-4,0
STARLINK-2040,2021-012AN,2023-11-27T20:15:56.547936,15.06398780,.0001356,53.0536,190.4076,94.5567,265.5577,0,U,47656,999,15473,.62256E-4,.646E-5,0
STARLINK-2041,2021-012AP,2023-11-27T23:35:00.712032,15.06392122,.0001495,53.0529,209.7878,73.8408,286.2746,0,U,47657,999,15396,.88619E-3,.1294E-3,0
STARLINK-2042,2021-012AQ,2023-11-28T00:59:54.874176,15.06404056,.0001329,53.0539,209.5241,117.3139,242.7986,0,U,47658,999,15397,.76212E-3,.1109E-3,0
STARLINK-2043,2021-012AR,2023-11-28T11:10:16.002336,15.06401107,.000158,53.0559,87.6153,126.8295,233.2839,0,U,47659,999,15570,.65399E-3,.9473E-4,0
STARLINK-2044,2021-012AS,2023-11-28T11:38:16.371744,15.06385839,.0001942,53.0550,78.1568,42.1377,317.9761,0,U,47660,999,15584,-.17615E-3,-.2903E-4,0
STARLINK-2051,2021-012AT,2023-11-28T00:09:28.964736,15.06402659,.0001399,53.0520,189.6770,93.7649,266.3500,0,U,47661,999,15424,.35889E-3,.5069E-4,0
STARLINK-2052,2021-012AU,2023-11-28T01:17:08.112768,15.06406389,.0001606,53.0518,189.4687,95.5616,264.5556,0,U,47662,999,15425,.1055E-2,.1547E-3,0
STARLINK-2053,2021-012AV,2023-11-27T17:15:32.111424,15.06390057,.0001519,53.0559,111.2864,108.5412,251.5742,0,U,47663,999,15583,.22816E-3,.3118E-4,0
STARLINK-2054,2021-012AW,2023-11-28T01:18:28.908864,15.06407558,.0001746,53.0525,189.4647,95.0664,265.0524,0,U,47664,999,15425,-.14594E-4,-.499E-5,0
STARLINK-2056,2021-012AX,2023-11-27T20:03:19.910304,15.06405219,.0001575,53.0530,185.4968,105.8304,254.2858,0,U,47665,999,15480,.11068E-3,.1368E-4,0
STARLINK-2057,2021-012AY,2023-11-27T18:22:33.305664,15.06398628,.0001518,53.0536,186.1151,97.1401,262.9760,0,U,47666,999,15427,.19329E-3,.2599E-4,0
